OBJECT_NAME,OBJECT_ID,EPOCH,MEAN_MOTION,ECCENTRICITY,INCLINATION,RA_OF_ASC_NODE,ARG_OF_PERICENTER,MEAN_ANOMALY,EPHEMERIS_TYPE,CLASSIFICATION_TYPE,NORAD_CAT_ID,ELEMENT_SET_NO,REV_AT_EPOCH,BSTAR,MEAN_MOTION_DOT,MEAN_MOTION_DDOT
IRIDIUM 135,2017-083A,2026-06-15T11:27:03.166272,14.34217716,.00021728,86.3963,322.7304,91.2507,268.8937,0,U,43070,999,44390,-.524981E-6,.18E-6,0
IRIDIUM 138,2017-083B,2026-06-15T12:03:35.137728,14.34217225,.00022106,86.3974,322.4151,87.6801,272.4647,0,U,43071,999,44389,-.15188121E-4,-.23E-6,0
IRIDIUM 116,2017-083C,2026-06-15T11:17:55.113792,14.34217875,.00019376,86.3961,322.7191,97.7660,262.3756,0,U,43072,999,44392,.4553563E-5,.33E-6,0
IRIDIUM 130,2017-083D,2026-06-15T12:12:43.071840,14.34217815,.00019305,86.3970,322.9783,91.6475,268.4941,0,U,43073,999,44387,.4060299E-5,.31E-6,0
IRIDIUM 151,2017-083E,2026-06-15T11:36:11.160864,14.34217811,.0002152,86.3963,322.7714,92.3520,267.7922,0,U,43074,999,44389,.5047503E-5,.34E-6,0
IRIDIUM 134,2017-083F,2026-06-15T12:30:59.118048,14.34217867,.00021012,86.3965,322.7636,91.0487,269.0949,0,U,43075,999,44386,.572775E-6,.21E-6,0
IRIDIUM 137,2017-083G,2026-06-15T11:08:47.139072,14.34217929,.00022081,86.3967,322.8802,103.7628,256.3814,0,U,43076,999,44392,.6881917E-5,.39E-6,0
IRIDIUM 141,2017-083H,2026-06-15T12:40:07.131648,14.34217958,.00022085,86.3961,322.6844,90.8897,269.2552,0,U,43077,999,44393,.576998E-5,.36E-6,0
IRIDIUM 153,2017-083J,2026-06-15T09:50:47.438592,14.34217699,.00022707,86.3958,291.2138,89.9349,270.2107,0,U,43078,999,44502,.403946E-6,.21E-6,0
IRIDIUM 131,2017-083K,2026-06-15T12:21:50.988672,14.34218992,.00022189,86.3967,322.8755,92.1031,268.0418,0,U,43079,999,44386,.40860914E-4,.134E-5,0
IRIDIUM 144,2018-030A,2026-06-15T09:59:55.273344,14.34218427,.0002099,86.3957,291.1403,96.3481,263.7954,0,U,43249,999,42988,.22669312E-4,.83E-6,0
IRIDIUM 149,2018-030B,2026-06-15T15:10:27.456672,14.34217284,.00021422,86.3953,291.0173,93.8064,266.3377,0,U,43250,999,42993,-.14695031E-4,-.21E-6,0
IRIDIUM 157,2018-030C,2026-06-15T13:57:23.416992,14.34217642,.00022016,86.3958,291.0915,94.1675,265.9772,0,U,43251,999,42990,-.2801652E-5,.12E-6,0
IRIDIUM 140,2018-030D,2026-06-15T14:24:47.423232,14.34217539,.00021388,86.3958,291.0961,93.2442,266.8999,0,U,43252,999,42996,-.4221692E-5,.8E-7,0
IRIDIUM 145,2018-030E,2026-06-15T14:06:31.369248,14.34217678,.00019715,86.3957,291.0737,100.4235,259.7183,0,U,43253,999,42989,.12677655E-4,.55E-6,0
IRIDIUM 146,2018-030F,2026-06-15T10:18:11.373120,14.34217963,.00020974,86.3957,291.1523,96.5848,263.5586,0,U,43254,999,42988,.10616998E-4,.5E-6,0
IRIDIUM 148,2018-030G,2026-06-15T09:32:31.436448,14.34217850,.00022532,86.3957,291.2085,96.5964,263.5488,0,U,43255,999,42991,.11300294E-4,.51E-6,0
IRIDIUM 142,2018-030H,2026-06-15T13:48:15.380928,14.34217719,.00020795,86.3954,291.0233,98.2920,261.8511,0,U,43256,999,42990,.18221976E-4,.71E-6,0
IRIDIUM 150,2018-030J,2026-06-15T09:41:39.425856,14.34217593,.00021344,86.3957,291.2112,93.3026,266.8414,0,U,43257,999,42990,-.1994897E-5,.14E-6,0
IRIDIUM 143,2018-030K,2026-06-15T09:14:15.389376,14.34217591,.0002074,86.3961,291.3117,96.0240,264.1192,0,U,43258,999,42983,.34620846E-4,.117E-5,0
IRIDIUM 161,2018-047C,2026-06-15T12:07:16.688928,14.43282162,.00025334,86.4482,89.1744,85.1547,274.9943,0,U,43478,999,42489,.77146281E-4,.28E-5,0
IRIDIUM 152,2018-047D,2026-06-15T11:55:54.235200,14.34218262,.00023309,86.3958,89.0388,83.2986,276.8475,0,U,43479,999,42224,.2802251E-4,.98E-6,0
IRIDIUM 147,2018-047E,2026-06-15T12:05:02.271264,14.34217703,.00021435,86.3959,89.0414,85.7525,274.3916,0,U,43480,999,42224,.8570319E-5,.44E-6,0
IRIDIUM 110,2018-047F,2026-06-15T12:14:10.328928,14.34217095,.00025821,86.3962,89.1302,83.8540,276.2950,0,U,43481,999,42223,.2454392E-4,.89E-6,0
IRIDIUM 162,2018-047G,2026-06-15T11:58:13.134432,14.43280817,.00022774,86.4481,89.0682,82.5715,277.5744,0,U,43482,999,42488,.77605937E-4,.281E-5,0
IRIDIUM 160,2018-061A,2026-06-15T10:56:10.470336,14.34218148,.00022805,86.3964,57.5215,85.9410,274.2047,0,U,43569,999,41312,.26583189E-4,.94E-6,0
IRIDIUM 166,2018-061B,2026-06-15T14:53:38.471424,14.34217854,.00021128,86.3964,57.4031,86.2953,273.8484,0,U,43570,999,41317,.11957579E-4,.53E-6,0
IRIDIUM 158,2018-061C,2026-06-15T10:47:02.483520,14.34217783,.00021983,86.3962,57.4845,82.3059,277.8387,0,U,43571,999,41311,.14922233E-4,.62E-6,0
IRIDIUM 165,2018-061D,2026-06-15T14:44:30.392160,14.34217513,.00020658,86.3964,57.4620,86.3802,273.7630,0,U,43572,999,41316,.32460336E-4,.111E-5,0
IRIDIUM 155,2018-061E,2026-06-15T05:27:22.480128,14.34217654,.0002113,86.3960,57.4928,82.2219,277.9216,0,U,43573,999,41307,.58806E-5,.36E-6,0
